NORAD_CAT_ID,OBJECT_NAME,OBJECT_TYPE,EPOCH,MEAN_MOTION,ECCENTRICITY,INCLINATION,RA_OF_ASC_NODE,ARG_OF_PERICENTER,MEAN_ANOMALY,BSTAR,MEAN_MOTION_DOT,MEAN_MOTION_DDOT,TLE_LINE0,TLE_LINE1,TLE_LINE2,SEMIMAJOR_AXIS,PERIOD,APOGEE,PERIGEE,DECAYED
52641.0,STARLINK-3991,PAYLOAD,2022-12-08 07:23:34,15.08846964,0.0003086,53.2169,189.482,40.5494,319.5727,4.1079e-05,3.65e-06,0.0,0 STARLINK-3991,1 52641U 22052AV  22342.30803288  .00000365  00000-0  41079-4 0  9993,2 52641  53.2169 189.4820 0003086  40.5494 319.5727 15.08846964 31886,6917.859,95.437,541.859,537.589,0.0
52641.0,STARLINK-3991,PAYLOAD,2022-12-08 20:06:38,15.08843431,0.0003028,53.2165,187.1052,37.8435,322.277,0.00022462,3.289e-05,0.0,0 STARLINK-3991,1 52641U 22052AV  22342.83795109  .00003289  00000-0  22462-3 0  9995,2 52641  53.2165 187.1052 0003028  37.8435 322.2770 15.08843431 31968,6917.87,95.437,541.83,537.64,0.0
52641.0,STARLINK-3991,PAYLOAD,2022-12-09 13:35:50,15.08903063,0.0003336,53.2158,183.836,332.1833,27.898000000000003,0.0011244999999999,0.00017686,0.0,0 STARLINK-3991,1 52641U 22052AV  22343.56655829  .00017686  00000-0  11245-2 0  9992,2 52641  53.2158 183.8360 0003336 332.1833  27.8980 15.08903063 32443,6917.688,95.434,541.86,537.245,0.0
52641.0,STARLINK-3991,PAYLOAD,2022-12-09 19:57:27,15.08822154,0.0003155,53.2158,182.6469,33.503,326.6162,-0.00015799,-2.801e-05,0.0,0 STARLINK-3991,1 52641U 22052AV  22343.83156597 -.00002801  00000-0 -15799-3 0  9994,2 52641  53.2158 182.6469 0003155  33.5030 326.6162 15.08822154 32487,6917.935,95.439,541.9830000000002,537.617,0.0
52641.0,STARLINK-3991,PAYLOAD,2022-12-10 00:43:42,15.08692461,0.0003348,53.2157,181.7553,37.2229,322.8995,-0.0020812,-0.0003313,0.0,0 STARLINK-3991,1 52641U 22052AV  22344.03035067 -.00033130  00000-0 -20812-2 0  9995,2 52641  53.2157 181.7553 0003348  37.2229 322.8995 15.08692461 32517,6918.331,95.447,542.513,537.88,0.0
52641.0,STARLINK-3991,PAYLOAD,2022-12-10 19:48:14,15.08831894,0.0003202,53.2169,178.1841,40.064,320.0588,-5.1016e-05,-1.1e-05,0.0,0 STARLINK-3991,1 52641U 22052AV  22344.82517328 -.00001100  00000-0 -51016-4 0  9991,2 52641  53.2169 178.1841 0003202  40.0640 320.0588 15.08831894 32263,6917.905,95.438,541.985,537.555,0.0
52641.0,STARLINK-3991,PAYLOAD,2022-12-10 21:23:38,15.08830175,0.0003076,53.2159,177.8876,40.3367,319.7853,-4.4145e-05,-9.91e-06,0.0,0 STARLINK-3991,1 52641U 22052AV  22344.89141254 -.00000991  00000-0 -44145-4 0  9991,2 52641  53.2159 177.8876 0003076  40.3367 319.7853 15.08830175 32647,6917.91,95.438,541.903,537.6469999999998,0.0
52641.0,STARLINK-3991,PAYLOAD,2022-12-11 13:17:30,15.088067,0.0002761,53.2162,174.9116,35.4649,324.6526,0.0004696,7.187e-05,0.0,0 STARLINK-3991,1 52641U 22052AV  22345.55382133  .00007187  00000-0  46960-3 0  9996,2 52641  53.2162 174.9116 0002761  35.4649 324.6526 15.08806700 32744,6917.982,95.44,541.757,537.937,0.0
52641.0,STARLINK-3991,PAYLOAD,2022-12-11 21:14:25,15.08831011,0.000319,53.2153,173.4246,42.5859,317.538,0.00023626,3.473e-05,0.0,0 STARLINK-3991,1 52641U 22052AV  22345.88501918  .00003473  00000-0  23626-3 0  9994,2 52641  53.2153 173.4246 0003190  42.5859 317.5380 15.08831011 32798,6917.908,95.438,541.98,537.566,0.0
52641.0,STARLINK-3991,PAYLOAD,2022-12-12 13:08:17,15.08837309,0.0003168999999999,53.2154,170.4507,44.3652,315.7593,0.00021973,3.21e-05,0.0,0 STARLINK-3991,1 52641U 22052AV  22346.54741911  .00003210  00000-0  21973-3 0  9999,2 52641  53.2154 170.4507 0003169  44.3652 315.7593 15.08837309 32526,6917.889,95.438,541.946,537.561,0.0
52641.0,STARLINK-3991,PAYLOAD,2022-12-13 05:02:08,15.08845797,0.00032,53.2157,167.4771,45.718,314.4074,0.00023949,3.526e-05,0.0,0 STARLINK-3991,1 52641U 22052AV  22347.20981536  .00003526  00000-0  23949-3 0  9997,2 52641  53.2157 167.4771 0003200  45.7180 314.4074 15.08845797 32996,6917.863,95.437,541.941,537.514,0.0
52641.0,STARLINK-3991,PAYLOAD,2022-12-13 12:59:03,15.08848551,0.0003203,53.2157,165.9901,46.5113,313.6145,0.00020219,2.932e-05,0.0,0 STARLINK-3991,1 52641U 22052AV  22347.54101291  .00002932  00000-0  20219-3 0  9993,2 52641  53.2157 165.9901 0003203  46.5113 313.6145 15.08848551 32678,6917.854,95.437,541.935,537.503,0.0
52641.0,STARLINK-3991,PAYLOAD,2022-12-13 20:55:58,15.08852776,0.000322,53.2157,164.5034,46.9107,313.2154,0.00021692,3.167e-05,0.0,0 STARLINK-3991,1 52641U 22052AV  22347.87220921  .00003167  00000-0  21692-3 0  9998,2 52641  53.2157 164.5034 0003220  46.9107 313.2154 15.08852776 32722,6917.840999999999,95.437,541.934,537.479,0.0
52641.0,STARLINK-3991,PAYLOAD,2022-12-14 12:49:49,15.08853606,0.0003234,53.2168,161.5295,49.1825,310.9447,0.00012991,1.7800000000000002e-05,0.0,0 STARLINK-3991,1 52641U 22052AV  22348.53460360  .00001780  00000-0  12991-3 0  9996,2 52641  53.2168 161.5295 0003234  49.1825 310.9447 15.08853606 33191,6917.839,95.437,541.941,537.467,0.0
52641.0,STARLINK-3991,PAYLOAD,2022-12-14 17:35:59,15.08846251,0.0003128,53.2145,160.6363,44.6388,315.4856,7.767899999999999e-06,-1.65e-06,0.0,0 STARLINK-3991,1 52641U 22052AV  22348.73332573 -.00000165  00000-0  77679-5 0  9995,2 52641  53.2145 160.6363 0003128  44.6388 315.4856 15.08846251 32852,6917.861,95.437,541.89,537.562,0.0
52641.0,STARLINK-3991,PAYLOAD,2022-12-14 22:22:08,15.08845985,0.0003159,53.2154,159.7448,46.3696,313.7557,-2.5315e-06,-3.29e-06,0.0,0 STARLINK-3991,1 52641U 22052AV  22348.93204500 -.00000329  00000-0 -25315-5 0  9998,2 52641  53.2154 159.7448 0003159  46.3696 313.7557 15.08845985 33257,6917.861999999999,95.437,541.9119999999998,537.5419999999998,0.0
52641.0,STARLINK-3991,PAYLOAD,2022-12-15 11:05:13,15.08844416,0.0003471,53.2152,157.3672,49.2859,310.8434,-8.0453e-05,-1.569e-05,0.0,0 STARLINK-3991,1 52641U 22052AV  22349.46196579 -.00001569  00000-0 -80453-4 0  9993,2 52641  53.2152 157.3672 0003471  49.2859 310.8434 15.08844416 32965,6917.8669999999975,95.437,542.133,537.331,0.0
52641.0,STARLINK-3991,PAYLOAD,2022-12-15 14:16:00,15.08833079,0.0003288,53.2156,156.7718,48.4056,311.7217,-0.00016115,-2.852e-05,0.0,0 STARLINK-3991,1 52641U 22052AV  22349.59445191 -.00002852  00000-0 -16115-3 0  9993,2 52641  53.2156 156.7718 0003288  48.4056 311.7217 15.08833079 33355,6917.901999999999,95.438,542.0409999999998,537.492,0.0
52641.0,STARLINK-3991,PAYLOAD,2022-12-15 20:37:33,15.08838084,0.0003212,53.2165,155.5822,48.3604,311.7663,-6.3885e-05,-1.305e-05,0.0,0 STARLINK-3991,1 52641U 22052AV  22349.85941565 -.00001305  00000-0 -63885-4 0  9997,2 52641  53.2165 155.5822 0003212  48.3604 311.7663 15.08838084 33023,6917.886,95.438,541.9730000000002,537.529,0.0
52641.0,STARLINK-3991,PAYLOAD,2022-12-16 10:56:01,15.08849232,0.0003157,53.2167,152.906,47.4353,312.6906,-0.00012644,-2.301e-05,0.0,0 STARLINK-3991,1 52641U 22052AV  22350.45556949 -.00002301  00000-0 -12644-3 0  9996,2 52641  53.2167 152.9060 0003157  47.4353 312.6906 15.08849232 33486,6917.852,95.437,541.901,537.533,0.0
52641.0,STARLINK-3991,PAYLOAD,2022-12-16 20:28:20,15.08840523,0.0003212,53.2167,151.1218,49.4228,310.7043,7.4035e-05,8.900000000000001e-06,0.0,0 STARLINK-3991,1 52641U 22052AV  22350.85300940  .00000890  00000-0  74035-4 0  9990,2 52641  53.2167 151.1218 0003212  49.4228 310.7043 15.08840523 33178,6917.879,95.438,541.966,537.5219999999998,0.0
52641.0,STARLINK-3991,PAYLOAD,2022-12-17 04:25:15,15.08846285,0.0003226,53.2168,149.6351,49.8865,310.241,0.00010111,1.321e-05,0.0,0 STARLINK-3991,1 52641U 22052AV  22351.18420471  .00001321  00000-0  10111-3 0  9993,2 52641  53.2168 149.6351 0003226  49.8865 310.2410 15.08846285 33225,6917.861,95.437,541.9580000000002,537.494,0.0
52641.0,STARLINK-3991,PAYLOAD,2022-12-17 17:08:20,15.0883924,0.0003027,53.2168,147.2562,49.2481,310.8773,0.00016017,2.261e-05,0.0,0 STARLINK-3991,1 52641U 22052AV  22351.71412741  .00002261  00000-0  16017-3 0  9998,2 52641  53.2168 147.2562 0003027  49.2481 310.8773 15.08839240 33670,6917.8830000000025,95.438,541.842,537.654,0.0
52641.0,STARLINK-3991,PAYLOAD,2022-12-17 21:54:30,15.08834213,0.0003251,53.2167,146.3643,50.1237,310.004,0.00010494,1.382e-05,0.0,0 STARLINK-3991,1 52641U 22052AV  22351.91285361  .00001382  00000-0  10494-3 0  9992,2 52641  53.2167 146.3643 0003251  50.1237 310.0040 15.08834213 33706,6917.898,95.438,542.012,537.514,0.0
52641.0,STARLINK-3991,PAYLOAD,2022-12-18 18:34:30,15.088482999999998,0.0003215,53.2167,142.4983,51.1412,308.9867,9.0393e-05,1.151e-05,0.0,0 STARLINK-3991,1 52641U 22052AV  22352.77396351  .00001151  00000-0  90393-4 0  9990,2 52641  53.2167 142.4983 0003215  51.1412 308.9867 15.08848300 33464,6917.855,95.437,541.944,537.496,0.0
52641.0,STARLINK-3991,PAYLOAD,2022-12-19 18:25:17,15.088459599999998,0.000312,53.2177,138.0381,54.8567,305.2717,0.00016362,2.317e-05,0.0,0 STARLINK-3991,1 52641U 22052AV  22353.76756077  .00002317  00000-0  16362-3 0  9993,2 52641  53.2177 138.0381 0003120  54.8567 305.2717 15.08845960 33614,6917.861999999999,95.437,541.886,537.569,0.0
52641.0,STARLINK-3991,PAYLOAD,2022-12-20 02:22:12,15.08853324,0.0003309,53.2176,136.5514,50.5016,309.6269,0.00019369,2.797e-05,0.0,0 STARLINK-3991,1 52641U 22052AV  22354.09875473  .00002797  00000-0  19369-3 0  9994,2 52641  53.2176 136.5514 0003309  50.5016 309.6269 15.08853324 33663,6917.84,95.437,541.994,537.4159999999998,0.0
52641.0,STARLINK-3991,PAYLOAD,2022-12-20 18:16:03,15.08846981,0.0003287,53.217,133.5777,51.6559,308.4728,-2.8817e-05,-7.48e-06,0.0,0 STARLINK-3991,1 52641U 22052AV  22354.76115534 -.00000748  00000-0 -28817-4 0  9998,2 52641  53.2170 133.5777 0003287  51.6559 308.4728 15.08846981 34135,6917.859,95.437,541.998,537.45,0.0
52641.0,STARLINK-3991,PAYLOAD,2022-12-21 11:45:19,15.08835742,0.0003143999999999,53.2158,130.30700000000002,50.1394,309.9874,-3.9766e-05,-9.22e-06,0.0,0 STARLINK-3991,1 52641U 22052AV  22355.48980810 -.00000922  00000-0 -39766-4 0  9994,2 52641  53.2158 130.3070 0003144  50.1394 309.9874 15.08835742 34248,6917.893,95.438,541.933,537.5830000000002,0.0
